ONEWEB-0228             
1 48780U 21045P   24095.15084824 -.00000076  00000+0 -23719-3 0  9990
2 48780  87.8999  59.1816 0001823  79.8583 280.2753 13.15549824139746
